0 SL-8 R/B
1 10293U 77079J   13281.08263976 -.00000101  00000-0 -76191-3 0  7215
2 10293 074.0255 078.0261 0135018 070.2510 067.5828 12.25232889392997
0 SL-8 R/B
1 10293U 77079J   13283.42563946 -.00000119  00000-0 -92493-3 0  7228
2 10293 074.0259 075.0526 0134989 066.8696 322.1928 12.25232857393283
0 SL-8 R/B
1 10293U 77079J   13285.46659764 -.00000118  00000-0 -91167-3 0  7235
2 10293 074.0263 072.4624 0135029 063.9312 324.5369 12.25232580393533
0 SL-8 R/B
1 10293U 77079J   13287.52120964 -.00000099  00000-0 -74776-3 0  7245
2 10293 074.0267 069.8549 0135049 060.9809 027.1011 12.25231834393781
0 SL-8 R/B
1 10293U 77079J   13289.72917942 -.00000090  00000-0 -66662-3 0  7256
2 10293 074.0270 067.0529 0135014 057.7755 046.1287 12.25231562394054
0 SL-8 R/B
1 10293U 77079J   13291.93907668 -.00000051  00000-0 -32641-3 0  7264
2 10293 074.0275 064.2486 0135046 054.5951 073.6294 12.25231338394322
0 SL-8 R/B
1 10293U 77079J   13293.98210307 -.00000055  00000-0 -36252-3 0  7275
2 10293 074.0278 061.6561 0135118 051.6728 085.0685 12.25231173394575
